start=new Date('2022-04-05T00:00:00.000Z').valueOf();
sats=[{"APOAPSIS":"548.258","MEAN_ELEMENT_THEORY":"SGP4","OBJECT_TYPE":"PAYLOAD","RCS_SIZE":"LARGE","CENTER_NAME":"EARTH","OBJECT_NAME":"STARLINK-1545","PERIAPSIS":"546.113","REF_FRAME":"TEME","DECAY_DATE":null,"SEMIMAJOR_AXIS":"6925.321","PERIOD":"95.592","MEAN_MOTION_DOT":"0.00012958","EPHEMERIS_TYPE":"0","SITE":"AFETR","MEAN_MOTION_DDOT":"0.0000000000000","ECCENTRICITY":"0.00015490","RA_OF_ASC_NODE":"259.6158","REV_AT_EPOCH":"9127","LAUNCH_DATE":"2020-08-18","MEAN_MOTION":"15.06409094","TIME_SYSTEM":"UTC","FILE":"3387897","NORAD_CAT_ID":"46156","ARG_OF_PERICENTER":"66.9106","TLE_LINE2":"2 46156  53.0523 259.6158 0001549  66.9106 293.2046 15.06409094 91278","GP_ID":"200423132","TLE_LINE1":"1 46156U 20057AR  22094.45639675  .00012958  00000-0  88696-3 0  9993","COUNTRY_CODE":"US","OBJECT_ID":"2020-057AR","EPOCH":"2022-04-04T10:57:12.679200","BSTAR":"0.00088696000000","INCLINATION":"53.0523","MEAN_ANOMALY":"293.2046","ELEMENT_SET_NO":"999","CLASSIFICATION_TYPE":"U"},{"TLE_LINE2":"2 46157  53.0546 237.9009 0001823  51.8352 308.2801 15.06403356 91023","COUNTRY_CODE":"US","TLE_LINE1":"1 46157U 20057AS  22094.84158402  .00007800  00000-0  54192-3 0  9995","GP_ID":"200438603","INCLINATION":"53.0546","MEAN_ANOMALY":"308.2801","CLASSIFICATION_TYPE":"U","ELEMENT_SET_NO":"999","OBJECT_ID":"2020-057AS","EPOCH":"2022-04-04T20:11:52.859328","BSTAR":"0.00054192000000","TIME_SYSTEM":"UTC","MEAN_MOTION":"15.06403356","ARG_OF_PERICENTER":"51.8352","FILE":"3388421","NORAD_CAT_ID":"46157","DECAY_DATE":null,"SEMIMAJOR_AXIS":"6925.338","PERIOD":"95.592","MEAN_MOTION_DOT":"0.00007800","REF_FRAME":"TEME","RA_OF_ASC_NODE":"237.9009","ECCENTRICITY":"0.00018230","REV_AT_EPOCH":"9102","LAUNCH_DATE":"2020-08-18","SITE":"AFETR","EPHEMERIS_TYPE":"0","MEAN_MOTION_DDOT":"0.0000000000000","MEAN_ELEMENT_THEORY":"SGP4","APOAPSIS":"548.466","OBJECT_NAME":"STARLINK-1587","PERIAPSIS":"545.941","OBJECT_TYPE":"PAYLOAD","RCS_SIZE":"LARGE","CENTER_NAME":"EARTH"},{"TIME_SYSTEM":"UTC","MEAN_MOTION":"15.06393987","ARG_OF_PERICENTER":"61.0405","FILE":"3387972","NORAD_CAT_ID":"46158","TLE_LINE1":"1 46158U 20057AT  22094.77154474  .00002813  00000-0  20767-3 0  9993","COUNTRY_CODE":"US","GP_ID":"200429741","TLE_LINE2":"2 46158  53.0547 238.2204 0001541  61.0405 299.0738 15.06393987 91018","INCLINATION":"53.0547","MEAN_ANOMALY":"299.0738","CLASSIFICATION_TYPE":"U","ELEMENT_SET_NO":"999","EPOCH":"2022-04-04T18:31:01.465536","OBJECT_ID":"2020-057AT","BSTAR":"0.00020767000000","MEAN_ELEMENT_THEORY":"SGP4","APOAPSIS":"548.299","OBJECT_NAME":"STARLINK-1589","PERIAPSIS":"546.165","OBJECT_TYPE":"PAYLOAD","CENTER_NAME":"EARTH","RCS_SIZE":"LARGE","DECAY_DATE":null,"SEMIMAJOR_AXIS":"6925.367","MEAN_MOTION_DOT":"0.00002813","PERIOD":"95.593","REF_FRAME":"TEME","REV_AT_EPOCH":"9101","ECCENTRICITY":"0.00015410","RA_OF_ASC_NODE":"238.2204","LAUNCH_DATE":"2020-08-18","EPHEMERIS_TYPE":"0","SITE":"AFETR","MEAN_MOTION_DDOT":"0.0000000000000"},{"NORAD_CAT_ID":"46159","FILE":"3387897","ARG_OF_PERICENTER":"67.9358","MEAN_MOTION":"15.06391659","TIME_SYSTEM":"UTC","BSTAR":"0.00000712740000","OBJECT_ID":"2020-057AU","EPOCH":"2022-04-04T00:22:56.371008","CLASSIFICATION_TYPE":"U","ELEMENT_SET_NO":"999","MEAN_ANOMALY":"292.1780","INCLINATION":"53.0547","TLE_LINE2":"2 46159  53.0547 281.6127 0001408  67.9358 292.1780 15.06391659 90934","TLE_LINE1":"1 46159U 20057AU  22094.01593022 -.00000175  00000-0  71274-5 0  9998","COUNTRY_CODE":"US","GP_ID":"200422382","RCS_SIZE":"LARGE","CENTER_NAME":"EARTH","OBJECT_TYPE":"PAYLOAD","PERIAPSIS":"546.264","OBJECT_NAME":"STARLINK-1595","APOAPSIS":"548.214","MEAN_ELEMENT_THEORY":"SGP4","MEAN_MOTION_DDOT":"0.0000000000000","EPHEMERIS_TYPE":"0","SITE":"AFETR","LAUNCH_DATE":"2020-08-18","RA_OF_ASC_NODE":"281.6127","ECCENTRICITY":"0.00014080","REV_AT_EPOCH":"9093","REF_FRAME":"TEME","PERIOD":"95.593","MEAN_MOTION_DOT":"-0.00000175","DECAY_DATE":null,"SEMIMAJOR_AXIS":"6925.374"},{"MEAN_ELEMENT_THEORY":"SGP4","APOAPSIS":"548.497","PERIAPSIS":"545.951","OBJECT_NAME":"STARLINK-1598","RCS_SIZE":"LARGE","CENTER_NAME":"EARTH","OBJECT_TYPE":"PAYLOAD","PERIOD":"95.592","MEAN_MOTION_DOT":"0.00003938","SEMIMAJOR_AXIS":"6925.359","DECAY_DATE":null,"REF_FRAME":"TEME","LAUNCH_DATE":"2020-08-18","RA_OF_ASC_NODE":"258.3670","ECCENTRICITY":"0.00018380","REV_AT_EPOCH":"9072","MEAN_MOTION_DDOT":"0.0000000000000","SITE":"AFETR","EPHEMERIS_TYPE":"0","TIME_SYSTEM":"UTC","MEAN_MOTION":"15.06396533","ARG_OF_PERICENTER":"54.2601","NORAD_CAT_ID":"46160","FILE":"3388232","TLE_LINE2":"2 46160  53.0539 258.3670 0001838  54.2601 305.8559 15.06396533 90727","GP_ID":"200434716","TLE_LINE1":"1 46160U 20057AV  22094.73653049  .00003938  00000-0  28314-3 0  9999","COUNTRY_CODE":"US","CLASSIFICATION_TYPE":"U","ELEMENT_SET_NO":"999","MEAN_ANOMALY":"305.8559","INCLINATION":"53.0539","BSTAR":"0.00028314000000","OBJECT_ID":"2020-057AV","EPOCH":"2022-04-04T17:40:36.234336"},{"COUNTRY_CODE":"US","TLE_LINE1":"1 46161U 20057AW  22094.78075741  .00002569  00000-0  19126-3 0  9992","GP_ID":"200429346","TLE_LINE2":"2 46161  53.0544 258.1661 0001525  81.1913 278.9249 15.06401739 90732","EPOCH":"2022-04-04T18:44:17.440224","OBJECT_ID":"2020-057AW","BSTAR":"0.00019126000000","MEAN_ANOMALY":"278.9249","INCLINATION":"53.0544","ELEMENT_SET_NO":"999","CLASSIFICATION_TYPE":"U","MEAN_MOTION":"15.06401739","TIME_SYSTEM":"UTC","FILE":"3387980","NORAD_CAT_ID":"46161","ARG_OF_PERICENTER":"81.1913","REF_FRAME":"TEME","DECAY_DATE":null,"SEMIMAJOR_AXIS":"6925.343","MEAN_MOTION_DOT":"0.00002569","PERIOD":"95.592","EPHEMERIS_TYPE":"0","SITE":"AFETR","MEAN_MOTION_DDOT":"0.0000000000000","REV_AT_EPOCH":"9073","ECCENTRICITY":"0.00015250","RA_OF_ASC_NODE":"258.1661","LAUNCH_DATE":"2020-08-18","APOAPSIS":"548.264","MEAN_ELEMENT_THEORY":"SGP4","OBJECT_TYPE":"PAYLOAD","CENTER_NAME":"EARTH","RCS_SIZE":"LARGE","OBJECT_NAME":"STARLINK-1600","PERIAPSIS":"546.152"},{"TIME_SYSTEM":"UTC","MEAN_MOTION":"15.06386180","ARG_OF_PERICENTER":"63.5230","NORAD_CAT_ID":"46162","FILE":"3387897","COUNTRY_CODE":"US","TLE_LINE1":"1 46162U 20057AX  22094.45271777  .00002615  00000-0  19443-3 0  9998","GP_ID":"200424114","TLE_LINE2":"2 46162  53.0554 259.6480 0001598  63.5230 296.5923 15.06386180 91283","ELEMENT_SET_NO":"999","CLASSIFICATION_TYPE":"U","INCLINATION":"53.0554","MEAN_ANOMALY":"296.5923","BSTAR":"0.00019443000000","EPOCH":"2022-04-04T10:51:54.815328","OBJECT_ID":"2020-057AX","MEAN_ELEMENT_THEORY":"SGP4","APOAPSIS":"548.363","PERIAPSIS":"546.149","OBJECT_NAME":"STARLINK-1603","CENTER_NAME":"EARTH","RCS_SIZE":"LARGE","OBJECT_TYPE":"PAYLOAD","MEAN_MOTION_DOT":"0.00002615","PERIOD":"95.593","SEMIMAJOR_AXIS":"6925.391","DECAY_DATE":null,"REF_FRAME":"TEME","LAUNCH_DATE":"2020-08-18","REV_AT_EPOCH":"9128","ECCENTRICITY":"0.00015980","RA_OF_ASC_NODE":"259.6480","MEAN_MOTION_DDOT":"0.0000000000000","SITE":"AFETR","EPHEMERIS_TYPE":"0"},{"ECCENTRICITY":"0.00017070","RA_OF_ASC_NODE":"238.1613","REV_AT_EPOCH":"9101","LAUNCH_DATE":"2020-08-18","SITE":"AFETR","EPHEMERIS_TYPE":"0","MEAN_MOTION_DDOT":"0.0000000000000","DECAY_DATE":null,"SEMIMAJOR_AXIS":"6925.352","PERIOD":"95.592","MEAN_MOTION_DOT":"0.00005270","REF_FRAME":"TEME","OBJECT_NAME":"STARLINK-1610","PERIAPSIS":"546.035","OBJECT_TYPE":"PAYLOAD","RCS_SIZE":"LARGE","CENTER_NAME":"EARTH","MEAN_ELEMENT_THEORY":"SGP4","APOAPSIS":"548.399","MEAN_ANOMALY":"300.0227","INCLINATION":"53.0528","CLASSIFICATION_TYPE":"U","ELEMENT_SET_NO":"999","OBJECT_ID":"2020-057AY","EPOCH":"2022-04-04T18:46:57.159264","BSTAR":"0.00037243000000","TLE_LINE2":"2 46163  53.0528 238.1613 0001707  60.0931 300.0227 15.06398863 91017","TLE_LINE1":"1 46163U 20057AY  22094.78260601  .00005270  00000-0  37243-3 0  9997","COUNTRY_CODE":"US","GP_ID":"200429920","ARG_OF_PERICENTER":"60.0931","FILE":"3387985","NORAD_CAT_ID":"46163","TIME_SYSTEM":"UTC","MEAN_MOTION":"15.06398863"},{"OBJECT_NAME":"STARLINK-1612","PERIAPSIS":"546.104","OBJECT_TYPE":"PAYLOAD","RCS_SIZE":"LARGE","CENTER_NAME":"EARTH","MEAN_ELEMENT_THEORY":"SGP4","APOAPSIS":"548.399","RA_OF_ASC_NODE":"239.0713","ECCENTRICITY":"0.00016570","REV_AT_EPOCH":"9158","LAUNCH_DATE":"2020-08-18","EPHEMERIS_TYPE":"0","SITE":"AFETR","MEAN_MOTION_DDOT":"0.0000000000000","DECAY_DATE":null,"SEMIMAJOR_AXIS":"6925.386","PERIOD":"95.593","MEAN_MOTION_DOT":"0.00001392","REF_FRAME":"TEME","ARG_OF_PERICENTER":"73.6347","FILE":"3387897","NORAD_CAT_ID":"46164","TIME_SYSTEM":"UTC","MEAN_MOTION":"15.06387631","INCLINATION":"53.0531","MEAN_ANOMALY":"286.4824","CLASSIFICATION_TYPE":"U","ELEMENT_SET_NO":"999","OBJECT_ID":"2020-057AZ","EPOCH":"2022-04-04T13:55:02.184960","BSTAR":"0.00011236000000","TLE_LINE2":"2 46164  53.0531 239.0713 0001657  73.6347 286.4824 15.06387631 91581","TLE_LINE1":"1 46164U 20057AZ  22094.57988640  .00001392  00000-0  11236-3 0  9990","GP_ID":"200423133","COUNTRY_CODE":"US"},{"REF_FRAME":"TEME","PERIOD":"95.400","MEAN_MOTION_DOT":"0.00021485","DECAY_DATE":null,"SEMIMAJOR_AXIS":"6916.068","MEAN_MOTION_DDOT":"0.0000000000000","EPHEMERIS_TYPE":"0","SITE":"AFETR","LAUNCH_DATE":"2020-08-18","RA_OF_ASC_NODE":"279.5870","ECCENTRICITY":"0.00009460","REV_AT_EPOCH":"8972","APOAPSIS":"538.588","MEAN_ELEMENT_THEORY":"SGP4","RCS_SIZE":"LARGE","CENTER_NAME":"EARTH","OBJECT_TYPE":"PAYLOAD","PERIAPSIS":"537.279","OBJECT_NAME":"STARLINK-1613","TLE_LINE2":"2 46165  53.0517 279.5870 0000946  84.9811 275.1287 15.09432982 89724","TLE_LINE1":"1 46165U 20057BA  22094.22258019  .00021485  00000-0  13419-2 0  9992","GP_ID":"200423878","COUNTRY_CODE":"US","BSTAR":"0.00134190000000","OBJECT_ID":"2020-057BA","EPOCH":"2022-04-04T05:20:30.928416","ELEMENT_SET_NO":"999","CLASSIFICATION_TYPE":"U","MEAN_ANOMALY":"275.1287","INCLINATION":"53.0517","MEAN_MOTION":"15.09432982","TIME_SYSTEM":"UTC","NORAD_CAT_ID":"46165","FILE":"3387897","ARG_OF_PERICENTER":"84.9811"}];
